GLOBALSTAR M084         
1 38040U 11080A   24245.62835539 -.00000102  00000+0  84367-5 0  9999
2 38040  51.9990 206.9525 0000511  94.7035  76.6620 12.62266463586222
GLOBALSTAR M080         
1 38041U 11080B   24245.27827545 -.00000109  00000+0 -27666-4 0  9995
2 38041  52.0043 209.5238 0000722  84.0209  55.7634 12.62264809586307
GLOBALSTAR M082         
1 38042U 11080C   24245.53587088 -.00000099  00000+0  27028-4 0  9999
2 38042  52.0069 164.1557 0000368 348.5440 182.4201 12.62265573587046
GLOBALSTAR M092         
1 38043U 11080D   24245.58456133 -.00000105  00000+0 -44550-5 0  9990
2 38043  52.0067 254.3697 0000310 119.9728  32.5371 12.62265561585507
GLOBALSTAR M090         
1 38044U 11080E   24245.48321458 -.00000089  00000+0  79698-4 0  9991
2 38044  51.9878 158.4966 0000446  30.0965 141.3590 12.62266740587150
GLOBALSTAR M086         
1 38045U 11080F   24245.18769785 -.00000098  00000+0  34731-4 0  9997
2 38045  51.9888 159.9240 0001453  45.2563 103.3678 12.62266178587064
GLOBALSTAR M097         
1 39072U 13005A   24245.49861645 -.00000080  00000+0  13334-3 0  9995
2 39072  52.0049  73.2329 0000830  60.7137 299.3813 12.62270102534352
GLOBALSTAR M093         
1 39073U 13005B   24245.55083889 -.00000085  00000+0  10489-3 0  9992
2 39073  51.9810  66.8344 0000800  59.1210 300.9735 12.62263429534315
